STARLINK-37220          
1 68398U 26063U   26092.75002315 -.02283890  15546-2 -43589-2 0  9991
2 68398  97.2815 233.5577 0002091  66.0397 120.4043 16.00790582  2322
STARLINK-37187          
1 68399U 26063V   26092.75002315 -.01834573  10161-2 -35747-2 0  9996
2 68399  97.2813 233.5566 0001625  66.9644 117.1108 16.00392506  2324
STARLINK-36235          
1 68400U 26063W   26092.75002315 -.01856481  10425-2 -35611-2 0  9994
2 68400  97.2810 233.5586 0001536  80.5141 108.5827 16.00671292  2325
STARLINK-37175          
1 68401U 26063X   26092.75002315 -.01858405  10462-2 -35380-2 0  9997
2 68401  97.2812 233.5601 0001605  70.4024 121.2648 16.00803270  2327
STARLINK-36360          
1 68402U 26063Y   26092.75002315 -.01885974  10776-2 -35609-2 0  9991
2 68402  97.2811 233.5611 0001494  76.7215 117.4227 16.00951512  2328
STARLINK-37218          
1 68403U 26063Z   26092.75002315 -.01865503  10587-2 -34726-2 0  9997
2 68403  97.2814 233.5637 0001616  71.1878 127.3881 16.01196804  2322
STARLINK-37188          
1 68404U 26063AA  26092.75002315 -.01863513  10549-2 -34952-2 0  9996
2 68404  97.2811 233.5623 0001599  68.4936 127.6824 16.01065014  2327
SHIYAN-33               
1 68405U 26064A   26092.91883692  .00009777  00000+0  41513-3 0  9992
2 68405  97.4657 168.8333 0013560 204.9975 155.0606 15.23201583  1033
LPNTSAT-001 (IOD-1)     
1 68408U 26065A   26091.17010600  .00004750  00000+0  23469-3 0  9990
2 68408  97.4137 333.2788 0015408 273.4606  86.4866 15.18233471   574
LPNTSAT-002 (IOD-2)     
1 68409U 26065B   26092.42247422  .00001915  00000+0  96696-4 0  9997
2 68409  97.4055 334.5080 0012739 262.3916  97.5871 15.18229138   741
ELECTRON R/B            
1 68410U 26065C   26088.74355105  .00479178  22642-5  25022-3 0  9993
2 68410  97.3942 331.0573 0228083 205.9229 153.0475 15.83047135   157
ELECTRON KICK STAGE R/B 
1 68411U 26065D   26092.81506133  .01483191  23207-5  19578-3 0  9994
2 68411  97.3673 335.5305 0111071 191.0630 168.8215 16.17672663   862
